STARLINK-31652          
1 59256U 24050C   26068.58307281 -.00000885  00000+0 -17742-4 0  9991
2 59256  53.1594 181.3932 0001429 101.9598 258.1563 15.30210485110531
JINJUSAT-1B             
1 63210U 25052A   26068.66363707  .00019955  00000+0  68430-3 0  9998
2 63210  97.4113 325.4613 0005550  82.1930 277.9941 15.30194857 54866
